{
  "norad_id": 41175,
  "name": "GSAT0208 (GALILEO 11)",
  "history": [
    {
      "epoch": "2026-03-28T07:26:58.508160",
      "apogee_km": 23236.557013769132,
      "perigee_km": 23207.773679767135,
      "latitude_deg": -18.82501466859613,
      "longitude_deg": 127.29834240023047,
      "semi_major_axis_km": 29600.30234676813,
      "eccentricity": 0.0004862,
      "inclination_deg": 55.7736,
      "raan_deg": 103.4753,
      "arg_perigee_deg": 326.1206,
      "mean_anomaly_deg": 33.901,
      "mean_motion_rev_day": 1.70474153
    }
  ]
}